OBJECT_NAME,OBJECT_ID,EPOCH,MEAN_MOTION,ECCENTRICITY,INCLINATION,RA_OF_ASC_NODE,ARG_OF_PERICENTER,MEAN_ANOMALY,EPHEMERIS_TYPE,CLASSIFICATION_TYPE,NORAD_CAT_ID,ELEMENT_SET_NO,REV_AT_EPOCH,BSTAR,MEAN_MOTION_DOT,MEAN_MOTION_DDOT
CUTE-1 (CO-55),2003-031E,2026-06-13T14:16:49.779840,14.24333733,.0009255,98.6734,173.1988,188.5198,171.5825,0,U,27844,999,19116,.13835812E-3,.276E-5,0
CUBESAT XI-IV (CO-57),2003-031J,2026-06-13T13:57:36.858240,14.23619125,.00087926,98.6767,172.9014,208.1063,151.9642,0,U,27848,999,19086,.1219905E-3,.234E-5,0
CUTE-1.7+APD II (CO-65),2008-021C,2026-06-13T14:27:57.983616,15.09422616,.00102137,97.8270,145.9466,50.2364,309.9762,0,U,32785,999,98465,.31764743E-3,.5019E-4,0
CANX-2,2008-021H,2026-06-13T04:01:31.278432,15.05585499,.00115523,97.8620,143.8667,62.4846,297.7552,0,U,32790,999,98420,.30971599E-3,.4405E-4,0
SEEDS II (CO-66),2008-021J,2026-06-13T13:04:32.511072,15.32635476,.00016064,97.7510,162.2685,15.7842,344.3449,0,U,32791,999,98673,.59804436E-3,.1879E-3,0
SWISSCUBE,2009-051B,2026-06-13T13:01:14.659392,14.62475506,.00057468,98.4040,72.3672,215.9144,144.1671,0,U,35932,999,88862,.19529538E-3,.94E-5,0
BEESAT-1,2009-051C,2026-06-13T06:37:48.676512,14.61714735,.0004035,98.3969,71.7400,232.2675,127.8160,0,U,35933,999,88861,.16281462E-3,.762E-5,0
ITUPSAT1,2009-051E,2026-06-13T11:15:44.395776,14.60435688,.00061507,98.4053,71.1320,247.8534,112.2013,0,U,35935,999,88819,.15645041E-3,.709E-5,0
TISAT 1,2010-035E,2026-06-13T14:08:31.002144,15.31582982,.00008973,98.0707,110.8192,172.7421,187.3831,0,U,36799,999,86715,.69890684E-3,.21265E-3,0
ZACUBE-1 (TSHEPISOSAT),2013-066B,2026-06-13T11:23:24.924192,15.01168647,.00404078,97.8083,126.7913,260.6547,99.0106,0,U,39417,999,68017,.27607235E-3,.3536E-4,0
GOMX-1,2013-066Q,2026-06-13T08:56:43.039968,14.69446045,.01301987,97.6489,5.0768,89.6712,271.9413,0,U,39430,999,66935,.25371615E-3,.1661E-4,0
CUBEBUG-2 (LO-74),2013-066AA,2026-06-13T15:31:29.400384,14.93734401,.0058667,97.8902,113.6100,40.4567,320.0992,0,U,39440,999,67646,.41592086E-3,.4494E-4,0
FUNCUBE-1 (AO-73),2013-066AE,2026-06-13T11:26:41.855712,15.09446504,.00353491,97.8265,135.8450,214.0171,145.8791,0,U,39444,999,67910,.44943483E-3,.7231E-4,0
UWE-3,2013-066AG,2026-06-13T09:44:14.731584,14.96995919,.00481668,97.8688,120.4540,333.7521,26.1260,0,U,39446,999,67701,.37334213E-3,.4335E-4,0
DUCHIFAT-1,2014-033M,2026-06-13T15:08:59.927424,15.63921102,.00035795,98.0475,223.2941,120.5679,239.5931,0,U,40021,999,65519,.11217791E-2,.106515E-2,0
NANOSATC-BR1,2014-033Q,2026-06-13T00:33:57.579840,15.31330706,.0004015,98.0725,196.0424,173.7192,186.4098,0,U,40024,999,65334,.59502601E-3,.17945E-3,0
QB50P1,2014-033R,2026-06-13T14:11:09.621312,15.18209661,.00075051,98.0958,175.4846,229.5673,130.4905,0,U,40025,999,65248,.42101288E-3,.8544E-4,0
QB50P2,2014-033Y,2026-06-13T12:48:43.186752,15.15115951,.00076042,98.0744,161.1864,175.2049,184.9256,0,U,40032,999,65211,.40338822E-3,.7489E-4,0
