{"fetched_at":"2026-06-14T13:59:49Z","count":9400,"tles":[{"name":"FUNCUBE-1 (AO-73)","line1":"1 39444U 13066AE  26164.47687333  .00007231  00000+0  44943-3 0  9999","line2":"2 39444  97.8265 135.8450 0035349 214.0171 145.8791 15.09446504679105","category":"Other"},{"name":"ZACUBE-1 (TSHEPISOSAT)","line1":"1 39417U 13066B   26164.47459403  .00003536  00000+0  27607-3 0  9996","line2":"2 39417  97.8083 126.7913 0040407 260.6547  99.0106 15.01168647680171","category":"Other"},{"name":"CUBESAT XI-IV (CO-57)","line1":"1 27848U 03031J   26164.58167660  .00000234  00000+0  12199-3 0  9997","line2":"2 27848  98.6767 172.9014 0008792 208.1063 151.9642 14.23619125190860","category":"Other"},{"name":"CUBEBUG-2 (LO-74)","line1":"1 39440U 13066AA  26164.64686806  .00004494  00000+0  41592-3 0  9993","line2":"2 39440  97.8902 113.6100 0058667  40.4567 320.0992 14.93734401676467","category":"Other"},{"name":"NANOSATC-BR1","line1":"1 40024U 14033Q   26164.02358310  .00017945  00000+0  59503-3 0  9992","line2":"2 40024  98.0725 196.0424 0004015 173.7192 186.4098 15.31330706653345","category":"Other"},{"name":"CUTE-1 (CO-55)","line1":"1 27844U 03031E   26164.59502060  .00000276  00000+0  13836-3 0  9996","line2":"2 27844  98.6734 173.1988 0009255 188.5198 171.5825 14.24333733191162","category":"Other"},{"name":"SWISSCUBE","line1":"1 35932U 09051B   26164.54253078  .00000940  00000+0  19530-3 0  9993","line2":"2 35932  98.4040  72.3672 0005746 215.9144 144.1671 14.62475506888620","category":"ISS"},{"name":"BEESAT-1","line1":"1 35933U 09051C   26164.27625783  .00000762  00000+0  16281-3 0  9992","line2":"2 35933  98.3969  71.7400 0004035 232.2675 127.8160 14.61714735888612","category":"Other"},{"name":"DUCHIFAT-1","line1":"1 40021U 14033M   26164.63124916  .00106515  00000+0  11218-2 0  9991","line2":"2 40021  98.0475 223.2941 0003579 120.5679 239.5931 15.63921102655197","category":"Other"},{"name":"QB50P1","line1":"1 40025U 14033R   26164.59108358  .00008544  00000+0  42101-3 0  9991","line2":"2 40025  98.0958 175.4846 0007505 229.5673 130.4905 15.18209661652484","category":"Other"},{"name":"ITUPSAT1","line1":"1 35935U 09051E   26164.46926384  .00000709  00000+0  15645-3 0  9990","line2":"2 35935  98.4053  71.1320 0006150 247.8534 112.2013 14.60435688888194","category":"Other"},{"name":"UWE-3","line1":"1 39446U 13066AG  26164.40572606  .00004335  00000+0  37334-3 0  9998","line2":"2 39446  97.8688 120.4540 0048166 333.7521  26.1260 14.96995919677019","category":"Other"},{"name":"QB50P2","line1":"1 40032U 14033Y   26164.53383318  .00007489  00000+0  40339-3 0  9992","line2":"2 40032  98.0744 161.1864 0007604 175.2049 184.9256 15.15115951652119","category":"Other"},{"name":"TISAT 1","line1":"1 36799U 10035E   26164.58924771  .00021265  00000+0  69891-3 0  9996","line2":"2 36799  98.0707 110.8192 0000897 172.7421 187.3831 15.31582982867159","category":"Other"},{"name":"CUTE-1.7+APD II (CO-65)","line1":"1 32785U 08021C   26164.60275444  .00005019  00000+0  31765-3 0  9996","line2":"2 32785  97.8270 145.9466 0010213  50.2364 309.9762 15.09422616984656","category":"Other"},{"name":"GOMX-1","line1":"1 39430U 13066Q   26164.37272037  .00001661  00000+0  25372-3 0  9990","line2":"2 39430  97.6489   5.0768 0130198  89.6712 271.9413 14.69446045669354","category":"Other"},{"name":"SEEDS II (CO-66)","line1":"1 32791U 08021J   26164.54482073  .00018790  00000+0  59804-3 0  9998","line2":"2 32791  97.7510 162.2685 0001606  15.7842 344.3449 15.32635476986739","category":"Other"},{"name":"CANX-2","line1":"1 32790U 08021H   26164.16772313  .00004405  00000+0  30972-3 0  9997","line2":"2 32790  97.8620 143.8667 0011552  62.4846 297.7552 15.05585499984205","category":"Other"}]}